GUOWANG GROUP 20 OBJECT*
1 68132U 26047D   26083.82212781 -.00000102  00000+0  32409-4 0  9994
2 68132  50.0048   8.7665 0002416   7.3102 352.7836 14.00513037  1680
GUOWANG GROUP 20 OBJECT*
1 68133U 26047E   26083.32146819 -.00000126  00000+0  15966-4 0  9993
2 68133  49.9979  10.8404 0003230 188.5214 171.5635 14.01339008  1620
GUOWANG GROUP 20 OBJECT*
1 68134U 26047F   26083.10517479 -.00000032  00000+0  77668-4 0  9997
2 68134  50.0123  11.6502 0000475 222.9253 137.1614 14.01903676  1585
GUOWANG GROUP 20 OBJECT*
1 68135U 26047G   26085.74432800  .00000018  00000+0  11069-3 0  9999
2 68135  50.0409   0.8903 0004806 213.0056 147.0548 14.01583953  1962
GUOWANG GROUP 20 OBJECT*
1 68136U 26047H   26084.03205513 -.00000099  00000+0  33918-4 0  9998
2 68136  49.9530   7.8688 0014532 103.7924 256.4596 14.01074305  1715
GUOWANG GROUP 20 OBJECT*
1 68137U 26047J   26082.88983446 -.00000137  00000+0  91454-5 0  9991
2 68137  50.0081  12.5219 0000175 124.6965 235.3956 14.02259904  1568
CZ-8A R/B               
1 68138U 26047K   26086.94318339 -.00000083  00000+0  38409-4 0  9996
2 68138  49.9539 355.1933 0044759 201.0157 158.8912 14.12231930  2137
SHIYAN-30 03            
1 68139U 26048A   26086.91013347  .00002587  00000+0  25487-3 0  9997
2 68139  35.0011  34.8636 0003300 350.7731   9.2913 14.91717437  2225
SHIYAN-30 04            
1 68140U 26048B   26086.91084927  .00002489  00000+0  24522-3 0  9991
2 68140  34.9926  34.8659 0001810 346.5565  13.5092 14.91726373  2222
CZ-2D R/B               
1 68141U 26048C   26086.94160442  .00001607  00000+0  14465-3 0  9998
2 68141  35.1305  34.4845 0015013 126.2961 233.9136 14.95557819  2232
STARLINK-36604          
1 68142U 26049A   26086.83335648 -.00048034  00000+0 -25123-3 0  9990
2 68142  97.2839 106.9620 0001151 110.9656 248.9785 15.80832047  3544
STARLINK-36995          
1 68143U 26049B   26086.83335648  .00018229  00000+0  95748-4 0  9993
2 68143  97.2839 106.9635 0001103  92.1206 272.0961 15.80806777  3534
