CCSDS_OMM_VERS = 2.0
CREATION_DATE  = 
ORIGINATOR     = 

OBJECT_NAME    = GUOWANG GROUP 20 OBJECT D
OBJECT_ID      = 2026-047D
CENTER_NAME    = EARTH
REF_FRAME      = TEME
TIME_SYSTEM    = UTC
MEAN_ELEMENT_THEORY = SGP/SGP4

EPOCH          = 2026-03-24T19:43:51.842784
MEAN_MOTION    = 14.00513037
ECCENTRICITY   = .00024162
INCLINATION    = 50.0048
RA_OF_ASC_NODE = 8.7665
ARG_OF_PERICENTER = 7.3102
MEAN_ANOMALY   = 352.7836

EPHEMERIS_TYPE = 0
CLASSIFICATION_TYPE = U
NORAD_CAT_ID   = 68132
ELEMENT_SET_NO = 999
REV_AT_EPOCH   = 168
BSTAR          = .32408862E-4
MEAN_MOTION_DOT = -.102E-5
MEAN_MOTION_DDOT = 0

CCSDS_OMM_VERS = 2.0
CREATION_DATE  = 
ORIGINATOR     = 

OBJECT_NAME    = GUOWANG GROUP 20 OBJECT E
OBJECT_ID      = 2026-047E
CENTER_NAME    = EARTH
REF_FRAME      = TEME
TIME_SYSTEM    = UTC
MEAN_ELEMENT_THEORY = SGP/SGP4

EPOCH          = 2026-03-24T07:42:54.851616
MEAN_MOTION    = 14.01339008
ECCENTRICITY   = .00032302
INCLINATION    = 49.9979
RA_OF_ASC_NODE = 10.8404
ARG_OF_PERICENTER = 188.5214
MEAN_ANOMALY   = 171.5635

EPHEMERIS_TYPE = 0
CLASSIFICATION_TYPE = U
NORAD_CAT_ID   = 68133
ELEMENT_SET_NO = 999
REV_AT_EPOCH   = 162
BSTAR          = .15966081E-4
MEAN_MOTION_DOT = -.126E-5
MEAN_MOTION_DDOT = 0

CCSDS_OMM_VERS = 2.0
CREATION_DATE  = 
ORIGINATOR     = 

OBJECT_NAME    = GUOWANG GROUP 20 OBJECT F
OBJECT_ID      = 2026-047F
CENTER_NAME    = EARTH
REF_FRAME      = TEME
TIME_SYSTEM    = UTC
MEAN_ELEMENT_THEORY = SGP/SGP4

EPOCH          = 2026-03-24T02:31:27.101856
MEAN_MOTION    = 14.01903676
ECCENTRICITY   = .00004752
INCLINATION    = 50.0123
RA_OF_ASC_NODE = 11.6502
ARG_OF_PERICENTER = 222.9253
MEAN_ANOMALY   = 137.1614

EPHEMERIS_TYPE = 0
CLASSIFICATION_TYPE = U
NORAD_CAT_ID   = 68134
ELEMENT_SET_NO = 999
REV_AT_EPOCH   = 158
BSTAR          = .77668349E-4
MEAN_MOTION_DOT = -.32E-6
MEAN_MOTION_DDOT = 0

CCSDS_OMM_VERS = 2.0
CREATION_DATE  = 
ORIGINATOR     = 

OBJECT_NAME    = GUOWANG GROUP 20 OBJECT G
OBJECT_ID      = 2026-047G
CENTER_NAME    = EARTH
REF_FRAME      = TEME
TIME_SYSTEM    = UTC
MEAN_ELEMENT_THEORY = SGP/SGP4

EPOCH          = 2026-03-26T17:51:49.939200
MEAN_MOTION    = 14.01583953
ECCENTRICITY   = .00048065
INCLINATION    = 50.0409
RA_OF_ASC_NODE = 0.8903
ARG_OF_PERICENTER = 213.0056
MEAN_ANOMALY   = 147.0548

EPHEMERIS_TYPE = 0
CLASSIFICATION_TYPE = U
NORAD_CAT_ID   = 68135
ELEMENT_SET_NO = 999
REV_AT_EPOCH   = 196
BSTAR          = .11069373E-3
MEAN_MOTION_DOT = .18E-6
MEAN_MOTION_DDOT = 0

CCSDS_OMM_VERS = 2.0
CREATION_DATE  = 
ORIGINATOR     = 

OBJECT_NAME    = GUOWANG GROUP 20 OBJECT H
OBJECT_ID      = 2026-047H
CENTER_NAME    = EARTH
REF_FRAME      = TEME
TIME_SYSTEM    = UTC
MEAN_ELEMENT_THEORY = SGP/SGP4

EPOCH          = 2026-03-25T00:46:09.563232
MEAN_MOTION    = 14.01074305
ECCENTRICITY   = .0014532
INCLINATION    = 49.9530
RA_OF_ASC_NODE = 7.8688
ARG_OF_PERICENTER = 103.7924
MEAN_ANOMALY   = 256.4596

EPHEMERIS_TYPE = 0
CLASSIFICATION_TYPE = U
NORAD_CAT_ID   = 68136
ELEMENT_SET_NO = 999
REV_AT_EPOCH   = 171
BSTAR          = .33918E-4
MEAN_MOTION_DOT = -.99E-6
MEAN_MOTION_DDOT = 0

CCSDS_OMM_VERS = 2.0
CREATION_DATE  = 
ORIGINATOR     = 

OBJECT_NAME    = GUOWANG GROUP 20 OBJECT J
OBJECT_ID      = 2026-047J
CENTER_NAME    = EARTH
REF_FRAME      = TEME
TIME_SYSTEM    = UTC
MEAN_ELEMENT_THEORY = SGP/SGP4

EPOCH          = 2026-03-23T21:21:21.697344
MEAN_MOTION    = 14.02259904
ECCENTRICITY   = .0000175
INCLINATION    = 50.0081
RA_OF_ASC_NODE = 12.5219
ARG_OF_PERICENTER = 124.6965
MEAN_ANOMALY   = 235.3956

EPHEMERIS_TYPE = 0
CLASSIFICATION_TYPE = U
NORAD_CAT_ID   = 68137
ELEMENT_SET_NO = 999
REV_AT_EPOCH   = 156
BSTAR          = .91454E-5
MEAN_MOTION_DOT = -.137E-5
MEAN_MOTION_DDOT = 0

CCSDS_OMM_VERS = 2.0
CREATION_DATE  = 
ORIGINATOR     = 

OBJECT_NAME    = CZ-8A R/B
OBJECT_ID      = 2026-047K
CENTER_NAME    = EARTH
REF_FRAME      = TEME
TIME_SYSTEM    = UTC
MEAN_ELEMENT_THEORY = SGP/SGP4

EPOCH          = 2026-03-27T22:38:11.044896
MEAN_MOTION    = 14.12231930
ECCENTRICITY   = .00447592
INCLINATION    = 49.9539
RA_OF_ASC_NODE = 355.1933
ARG_OF_PERICENTER = 201.0157
MEAN_ANOMALY   = 158.8912

EPHEMERIS_TYPE = 0
CLASSIFICATION_TYPE = U
NORAD_CAT_ID   = 68138
ELEMENT_SET_NO = 999
REV_AT_EPOCH   = 213
BSTAR          = .38408671E-4
MEAN_MOTION_DOT = -.83E-6
MEAN_MOTION_DDOT = 0

CCSDS_OMM_VERS = 2.0
CREATION_DATE  = 
ORIGINATOR     = 

OBJECT_NAME    = SHIYAN-30 03
OBJECT_ID      = 2026-048A
CENTER_NAME    = EARTH
REF_FRAME      = TEME
TIME_SYSTEM    = UTC
MEAN_ELEMENT_THEORY = SGP/SGP4

EPOCH          = 2026-03-27T21:50:35.531808
MEAN_MOTION    = 14.91717437
ECCENTRICITY   = .00033001
INCLINATION    = 35.0011
RA_OF_ASC_NODE = 34.8636
ARG_OF_PERICENTER = 350.7731
MEAN_ANOMALY   = 9.2913

EPHEMERIS_TYPE = 0
CLASSIFICATION_TYPE = U
NORAD_CAT_ID   = 68139
ELEMENT_SET_NO = 999
REV_AT_EPOCH   = 222
BSTAR          = .25487103E-3
MEAN_MOTION_DOT = .2587E-4
MEAN_MOTION_DDOT = 0

CCSDS_OMM_VERS = 2.0
CREATION_DATE  = 
ORIGINATOR     = 

OBJECT_NAME    = SHIYAN-30 04
OBJECT_ID      = 2026-048B
CENTER_NAME    = EARTH
REF_FRAME      = TEME
TIME_SYSTEM    = UTC
MEAN_ELEMENT_THEORY = SGP/SGP4

EPOCH          = 2026-03-27T21:51:37.376928
MEAN_MOTION    = 14.91726373
ECCENTRICITY   = .00018105
INCLINATION    = 34.9926
RA_OF_ASC_NODE = 34.8659
ARG_OF_PERICENTER = 346.5565
MEAN_ANOMALY   = 13.5092

EPHEMERIS_TYPE = 0
CLASSIFICATION_TYPE = U
NORAD_CAT_ID   = 68140
ELEMENT_SET_NO = 999
REV_AT_EPOCH   = 222
BSTAR          = .24522471E-3
MEAN_MOTION_DOT = .2489E-4
MEAN_MOTION_DDOT = 0

CCSDS_OMM_VERS = 2.0
CREATION_DATE  = 
ORIGINATOR     = 

OBJECT_NAME    = CZ-2D R/B
OBJECT_ID      = 2026-048C
CENTER_NAME    = EARTH
REF_FRAME      = TEME
TIME_SYSTEM    = UTC
MEAN_ELEMENT_THEORY = SGP/SGP4

EPOCH          = 2026-03-27T22:35:54.621888
MEAN_MOTION    = 14.95557819
ECCENTRICITY   = .00150133
INCLINATION    = 35.1305
RA_OF_ASC_NODE = 34.4845
ARG_OF_PERICENTER = 126.2961
MEAN_ANOMALY   = 233.9136

EPHEMERIS_TYPE = 0
CLASSIFICATION_TYPE = U
NORAD_CAT_ID   = 68141
ELEMENT_SET_NO = 999
REV_AT_EPOCH   = 223
BSTAR          = .14465376E-3
MEAN_MOTION_DOT = .1607E-4
MEAN_MOTION_DDOT = 0

CCSDS_OMM_VERS = 2.0
CREATION_DATE  = 
ORIGINATOR     = 

OBJECT_NAME    = STARLINK-36604
OBJECT_ID      = 2026-049A
CENTER_NAME    = EARTH
REF_FRAME      = TEME
TIME_SYSTEM    = UTC
MEAN_ELEMENT_THEORY = SGP/SGP4

EPOCH          = 2026-03-27T20:00:01.999872
MEAN_MOTION    = 15.80832047
ECCENTRICITY   = .00011518
INCLINATION    = 97.2839
RA_OF_ASC_NODE = 106.9620
ARG_OF_PERICENTER = 110.9656
MEAN_ANOMALY   = 248.9785

EPHEMERIS_TYPE = 0
CLASSIFICATION_TYPE = U
NORAD_CAT_ID   = 68142
ELEMENT_SET_NO = 999
REV_AT_EPOCH   = 354
BSTAR          = -.2512293E-3
MEAN_MOTION_DOT = -.48034E-3
MEAN_MOTION_DDOT = 0

CCSDS_OMM_VERS = 2.0
CREATION_DATE  = 
ORIGINATOR     = 

OBJECT_NAME    = STARLINK-36995
OBJECT_ID      = 2026-049B
CENTER_NAME    = EARTH
REF_FRAME      = TEME
TIME_SYSTEM    = UTC
MEAN_ELEMENT_THEORY = SGP/SGP4

EPOCH          = 2026-03-27T20:00:01.999872
MEAN_MOTION    = 15.80806777
ECCENTRICITY   = .00011036
INCLINATION    = 97.2839
RA_OF_ASC_NODE = 106.9635
ARG_OF_PERICENTER = 92.1206
MEAN_ANOMALY   = 272.0961

EPHEMERIS_TYPE = 0
CLASSIFICATION_TYPE = U
NORAD_CAT_ID   = 68143
ELEMENT_SET_NO = 999
REV_AT_EPOCH   = 353
BSTAR          = .95747625E-4
MEAN_MOTION_DOT = .18229E-3
MEAN_MOTION_DDOT = 0

